ONEWEB-0600             
1 54664U 22166Y   24151.69142057 -.00000011  00000+0 -57988-4 0  9993
2 54664  87.9303  32.8127 0001689  87.1163 273.0165 13.21824022 72761
ONEWEB-0601             
1 54665U 22166Z   24151.68352625  .00000033  00000+0  48379-4 0  9993
2 54665  87.9311  32.7775 0001323  80.8310 279.2974 13.21824231 72957
ONEWEB-0602             
1 54666U 22166AA  24151.72453098  .00000025  00000+0  29186-4 0  9991
2 54666  87.9311  32.7732 0001491  86.5586 273.5718 13.21823432 72804
ONEWEB-0603             
1 54667U 22166AB  24151.72925201 -.00000251  00000+0 -64028-3 0  9998
2 54667  87.9311  32.7737 0001387  86.4101 273.7192 13.21828835 72738
ONEWEB-0604             
1 54668U 22166AC  24151.71663780  .00000045  00000+0  76694-4 0  9991
2 54668  87.9306  32.7569 0001886  91.5979 268.5371 13.21826045 72697
ONEWEB-0605             
1 54669U 22166AD  24151.71033757  .00000050  00000+0  89100-4 0  9999
2 54669  87.9304  32.7909 0001220  72.5853 287.5414 13.21823557 72768
ONEWEB-0606             
1 54670U 22166AE  24151.65672209 -.00000028  00000+0 -98296-4 0  9998
2 54670  87.9309  32.7910 0002032  80.5194 279.6169 13.21823794 72814
